{
  "type": "FeatureCollection",
  "features": [
    {
      "type": "Feature",
      "properties": {
        "id": "hokkaido-all",
        "kind": "route",
        "name": "일본 홋카이도 여행 (전체)",
        "day_label": "전체",
        "date": "2026.10.08~10.11 · 3박 4일",
        "description": "",
        "distance_km": 312.2,
        "segments": 4,
        "is_all": true,
        "child_ids": [
          "hokkaido-day1",
          "hokkaido-day2",
          "hokkaido-day3",
          "hokkaido-day4"
        ],
        "color": "#111827"
      },
      "geometry": {
        "type": "LineString",
        "coordinates": [
          [
            141.6925,
            42.77528
          ]
        ]
      }
    },
    {
      "type": "Feature",
      "properties": {
        "id": "hokkaido-day1",
        "kind": "route",
        "name": "1일차 · 10/8(목) 인천→죠잔케이",
        "day_label": "1일",
        "date": "2026.10.08(목)",
        "description": "인천(仁川) → 신치토세(新千歳) → 죠잔케이(定山渓) 하나모미지(花もみじ)",
        "distance_km": 53.0,
        "segments": 1,
        "color": "#2563eb",
        "meals": {
          "breakfast": "—",
          "lunch": "기내(유료)",
          "dinner": "하나모미지(花もみじ) 호텔 뷔페"
        },
        "hotel": "죠잔케이(定山渓) 하나모미지(花もみじ)",
        "flight": "7C1503 ICN 12:15 → CTS 15:00",
        "highlight": "신치토세 도착 후 죠잔케이 이동 약 1시간 30분 · 하나모미지 숙박"
      },
      "geometry": {
        "type": "LineString",
        "coordinates": [
          [
            141.6925,
            42.77528
          ],
          [
            141.65,
            42.82
          ],
          [
            141.55,
            42.9
          ],
          [
            141.42,
            42.98
          ],
          [
            141.3,
            42.975
          ],
          [
            141.22,
            42.968
          ],
          [
            141.1620106,
            42.9658905
          ]
        ]
      }
    },
    {
      "type": "Feature",
      "properties": {
        "tour_id": "hokkaido-day1",
        "kind": "stop",
        "order": 1,
        "name": "신치토세공항(新千歳空港)",
        "detail": "CTS · 15:00 도착 · 7C1503",
        "color": "#2563eb",
        "day_label": "1일",
        "time": "15:00",
        "note": "입국 수속 후 죠잔케이(定山渓) 온천마을로 이동(약 1시간 30분)"
      },
      "geometry": {
        "type": "Point",
        "coordinates": [
          141.6925,
          42.77528
        ]
      }
    },
    {
      "type": "Feature",
      "properties": {
        "tour_id": "hokkaido-day1",
        "kind": "stop",
        "order": 2,
        "name": "하나모미지(花もみじ)",
        "detail": "죠잔케이(定山渓) 온천 · 1일차 숙박",
        "color": "#2563eb",
        "day_label": "1일",
        "time": "숙박",
        "note": "삿포로시 미나미구 조잔케이온센. 전망 대욕장·모미지유·대절탕"
      },
      "geometry": {
        "type": "Point",
        "coordinates": [
          141.1620106,
          42.9658905
        ]
      }
    },
    {
      "type": "Feature",
      "properties": {
        "tour_id": "hokkaido-day2",
        "kind": "stop",
        "order": 1,
        "name": "하나모미지(花もみじ)",
        "detail": "定山渓 · 1일차 숙소에서 출발",
        "color": "#16a34a",
        "day_label": "2일",
        "time": "출발",
        "note": "호텔 조식(뷔페) 후 오타루(小樽)로 이동"
      },
      "geometry": {
        "type": "Point",
        "coordinates": [
          141.1620106,
          42.9658905
        ]
      }
    },
    {
      "type": "Feature",
      "properties": {
        "tour_id": "hokkaido-day2",
        "kind": "stop",
        "order": 2,
        "name": "오타루 운하(小樽運河)",
        "detail": "오타루 도착",
        "color": "#16a34a",
        "day_label": "2일",
        "time": "관광",
        "note": "1923년 완성 운하. 카페·상점가"
      },
      "geometry": {
        "type": "Point",
        "coordinates": [
          140.9947,
          43.1973
        ]
      }
    },
    {
      "type": "Feature",
      "properties": {
        "tour_id": "hokkaido-day2",
        "kind": "stop",
        "order": 3,
        "name": "오타루 과자거리(小樽菓子通り)",
        "detail": "롯카테이·르타오·기타카로",
        "color": "#16a34a",
        "day_label": "2일",
        "time": "관광",
        "note": "오타루 과자 상점가"
      },
      "geometry": {
        "type": "Point",
        "coordinates": [
          140.9947904,
          43.1982363
        ]
      }
    },
    {
      "type": "Feature",
      "properties": {
        "tour_id": "hokkaido-day2",
        "kind": "stop",
        "order": 4,
        "name": "오타루 오르골당(小樽オルゴール堂)",
        "detail": "일본 최대 규모",
        "color": "#16a34a",
        "day_label": "2일",
        "time": "관광",
        "note": "3만여 점 소장, 1912년부터"
      },
      "geometry": {
        "type": "Point",
        "coordinates": [
          141.007674,
          43.190591
        ]
      }
    },
    {
      "type": "Feature",
      "properties": {
        "tour_id": "hokkaido-day2",
        "kind": "stop",
        "order": 5,
        "name": "기타이치 가라스(北一硝子)",
        "detail": "유리공방 거리",
        "color": "#16a34a",
        "day_label": "2일",
        "time": "관광",
        "note": "오타루 특산 유리공예 공방"
      },
      "geometry": {
        "type": "Point",
        "coordinates": [
          141.0073024,
          43.1915406
        ]
      }
    },
    {
      "type": "Feature",
      "properties": {
        "tour_id": "hokkaido-day2",
        "kind": "stop",
        "order": 6,
        "name": "다나카 주조(田中酒造)",
        "detail": "사케 시음 · 스시 세트",
        "color": "#16a34a",
        "day_label": "2일",
        "time": "중식",
        "note": "1899년 창업. 가이드 시음 후 중식은 오타루 스시 세트"
      },
      "geometry": {
        "type": "Point",
        "coordinates": [
          141.0137758,
          43.1863422
        ]
      }
    },
    {
      "type": "Feature",
      "properties": {
        "tour_id": "hokkaido-day2",
        "kind": "stop",
        "order": 7,
        "name": "오도리 공원(大通公園)",
        "detail": "삿포로 시내",
        "color": "#16a34a",
        "day_label": "2일",
        "time": "오후",
        "note": "길이 1.5km 시민공원. 동쪽 끝 삿포로 TV타워"
      },
      "geometry": {
        "type": "Point",
        "coordinates": [
          141.3544308,
          43.0607521
        ]
      }
    },
    {
      "type": "Feature",
      "properties": {
        "tour_id": "hokkaido-day2",
        "kind": "stop",
        "order": 8,
        "name": "홋카이도 시계탑(北海道時計台)",
        "detail": "삿포로 시내",
        "color": "#16a34a",
        "day_label": "2일",
        "time": "오후",
        "note": "1878년 삿포로 농학교 연무장, 국가 중요문화재"
      },
      "geometry": {
        "type": "Point",
        "coordinates": [
          141.3536,
          43.0625
        ]
      }
    },
    {
      "type": "Feature",
      "properties": {
        "tour_id": "hokkaido-day2",
        "kind": "stop",
        "order": 9,
        "name": "구 홋카이도 도청사(旧北海道庁舎)",
        "detail": "赤れんが庁舎",
        "color": "#16a34a",
        "day_label": "2일",
        "time": "오후",
        "note": "1888년 붉은 벽돌관, 네오바로크 양식"
      },
      "geometry": {
        "type": "Point",
        "coordinates": [
          141.3471,
          43.0646
        ]
      }
    },
    {
      "type": "Feature",
      "properties": {
        "tour_id": "hokkaido-day2",
        "kind": "stop",
        "order": 10,
        "name": "시로이 코이비토 파크(白い恋人パーク)",
        "detail": "외관 관광",
        "color": "#16a34a",
        "day_label": "2일",
        "time": "오후",
        "note": "ISHIYA 白い恋人 테마파크 외관"
      },
      "geometry": {
        "type": "Point",
        "coordinates": [
          141.271613,
          43.088695
        ]
      }
    },
    {
      "type": "Feature",
      "properties": {
        "tour_id": "hokkaido-day2",
        "kind": "stop",
        "order": 11,
        "name": "이비스 스타일스 삿포로",
        "detail": "ibis Styles 札幌 · 슈페리어 트윈",
        "color": "#16a34a",
        "day_label": "2일",
        "time": "숙박",
        "note": "석식: 대게+샤브샤브+음료 무제한. 스스키노↔나카지마 공원 사이"
      },
      "geometry": {
        "type": "Point",
        "coordinates": [
          141.355046,
          43.050211
        ]
      }
    },
    {
      "type": "Feature",
      "properties": {
        "id": "hokkaido-day2",
        "kind": "route",
        "name": "2일차 · 10/9(금) 오타루→삿포로",
        "day_label": "2일",
        "date": "2026.10.09(금)",
        "description": "하나모미지(花もみじ) → 오타루 운하·과자거리·오르골당·기타이치 가라스·다나카 주조 → 오도리·시계탑·도청사·시로이 코이비토 → 이비스 스타일스 삿포로",
        "distance_km": 79.9,
        "segments": 10,
        "color": "#16a34a",
        "meals": {
          "breakfast": "호텔 뷔페",
          "lunch": "오타루(小樽) 스시 세트",
          "dinner": "대게+샤브샤브+음료 무제한"
        },
        "hotel": "이비스 스타일스 삿포로(ibis Styles 札幌) · 슈페리어 트윈",
        "highlight": "오타루 스시 · 대게+샤브샤브 석식 · 오도리·시계탑·시로이 코이비토"
      },
      "geometry": {
        "type": "LineString",
        "coordinates": [
          [
            141.1620106,
            42.9658905
          ],
          [
            141.13,
            43.02
          ],
          [
            141.05,
            43.1
          ],
          [
            141.0,
            43.16
          ],
          [
            140.9947,
            43.1973
          ],
          [
            140.9947904,
            43.1982363
          ],
          [
            141.007674,
            43.190591
          ],
          [
            141.0073024,
            43.1915406
          ],
          [
            141.0137758,
            43.1863422
          ],
          [
            141.05,
            43.14
          ],
          [
            141.2,
            43.1
          ],
          [
            141.32,
            43.08
          ],
          [
            141.3544308,
            43.0607521
          ],
          [
            141.3536,
            43.0625
          ],
          [
            141.3471,
            43.0646
          ],
          [
            141.271613,
            43.088695
          ],
          [
            141.32,
            43.06
          ],
          [
            141.355046,
            43.050211
          ]
        ]
      }
    },
    {
      "type": "Feature",
      "properties": {
        "id": "hokkaido-day3",
        "kind": "route",
        "name": "3일차 · 10/10(토) 삿포로→도야→노보리베츠",
        "day_label": "3일",
        "date": "2026.10.10(토)",
        "description": "이비스 스타일스 삿포로 → 도야 호수·유람선 → 쇼와신잔 → 사이로 전망대 → 다테(伊達) → 지옥계곡 → 세키스이테이(石水亭)",
        "distance_km": 120.2,
        "segments": 6,
        "color": "#ea580c",
        "meals": {
          "breakfast": "호텔 뷔페",
          "lunch": "가리비(ホタテ) 정식",
          "dinner": "호텔 일·양식 뷔페"
        },
        "hotel": "노보리베츠 세키스이테이(登別 石水亭) · 화양실(和洋室) 업그레이드",
        "highlight": "도야 유람선 · BOCCA · 가리비 정식 · 지옥계곡 · 세키스이테이"
      },
      "geometry": {
        "type": "LineString",
        "coordinates": [
          [
            141.355046,
            43.050211
          ],
          [
            141.28,
            43.02
          ],
          [
            141.18,
            42.98
          ],
          [
            141.05,
            42.85
          ],
          [
            140.98,
            42.78
          ],
          [
            140.9,
            42.68
          ],
          [
            140.84,
            42.61
          ],
          [
            140.8229205,
            42.5665157
          ],
          [
            140.86444,
            42.5425
          ],
          [
            140.7994096,
            42.6261184
          ],
          [
            140.9,
            42.55
          ],
          [
            141.0,
            42.5
          ],
          [
            141.146411,
            42.497467
          ],
          [
            141.1485,
            42.4935
          ]
        ]
      }
    },
    {
      "type": "Feature",
      "properties": {
        "tour_id": "hokkaido-day3",
        "kind": "stop",
        "order": 1,
        "name": "이비스 스타일스 삿포로",
        "detail": "ibis Styles 札幌 · 2일차 숙소에서 출발",
        "color": "#ea580c",
        "day_label": "3일",
        "time": "출발",
        "note": "호텔 조식 후 도야코(洞爺湖)로 이동"
      },
      "geometry": {
        "type": "Point",
        "coordinates": [
          141.355046,
          43.050211
        ]
      }
    },
    {
      "type": "Feature",
      "properties": {
        "tour_id": "hokkaido-day3",
        "kind": "stop",
        "order": 2,
        "name": "도야 호수 유람선 선착장(洞爺湖 駅前桟橋)",
        "detail": "도야 호수 · 유람선 약 50분",
        "color": "#ea580c",
        "day_label": "3일",
        "time": "관광",
        "note": "도야 호수 유람. 우스산(有珠山) 배경"
      },
      "geometry": {
        "type": "Point",
        "coordinates": [
          140.8229205,
          42.5665157
        ]
      }
    },
    {
      "type": "Feature",
      "properties": {
        "tour_id": "hokkaido-day3",
        "kind": "stop",
        "order": 3,
        "name": "쇼와신잔(昭和新山)",
        "detail": "활화산 · 유황 분연",
        "color": "#ea580c",
        "day_label": "3일",
        "time": "관광",
        "note": "1943년 우스산 화산활동으로 생성"
      },
      "geometry": {
        "type": "Point",
        "coordinates": [
          140.86444,
          42.5425
        ]
      }
    },
    {
      "type": "Feature",
      "properties": {
        "tour_id": "hokkaido-day3",
        "kind": "stop",
        "order": 4,
        "name": "사이로 전망대(サイロ展望台)",
        "detail": "파노라마 · BOCCA · 가리비 정식",
        "color": "#ea580c",
        "day_label": "3일",
        "time": "중식",
        "note": "BOCCA 요구르트 후 중식은 가리비 정식. 이어 도야코→다테 약 40분"
      },
      "geometry": {
        "type": "Point",
        "coordinates": [
          140.7994096,
          42.6261184
        ]
      }
    },
    {
      "type": "Feature",
      "properties": {
        "tour_id": "hokkaido-day3",
        "kind": "stop",
        "order": 5,
        "name": "노보리베츠 지옥계곡(登別地獄谷)",
        "detail": "산책 약 15분",
        "color": "#ea580c",
        "day_label": "3일",
        "time": "관광",
        "note": "다테(伊達) 이동 후, 호텔 체크인 전. 카사야마산 분화구, 유황 연기"
      },
      "geometry": {
        "type": "Point",
        "coordinates": [
          141.146411,
          42.497467
        ]
      }
    },
    {
      "type": "Feature",
      "properties": {
        "tour_id": "hokkaido-day3",
        "kind": "stop",
        "order": 6,
        "name": "노보리베츠 세키스이테이(石水亭)",
        "detail": "화양실 업그레이드",
        "color": "#ea580c",
        "day_label": "3일",
        "time": "숙박",
        "note": "지옥계곡 후 체크인. 화양실, 실내·노천온천, 석식은 일·양식 뷔페"
      },
      "geometry": {
        "type": "Point",
        "coordinates": [
          141.1485,
          42.4935
        ]
      }
    },
    {
      "type": "Feature",
      "properties": {
        "id": "hokkaido-day4",
        "kind": "route",
        "name": "4일차 · 10/11(일) 노보리베츠→인천",
        "day_label": "4일",
        "date": "2026.10.11(일)",
        "description": "노보리베츠 세키스이테이(石水亭) → 다테 지다이무라(伊達時代村) → 신치토세(新千歳) → 인천(仁川)",
        "distance_km": 59.1,
        "segments": 2,
        "color": "#9333ea",
        "meals": {
          "breakfast": "호텔 뷔페",
          "lunch": "도리무시 우동(鶏蒸しうどん)",
          "dinner": "기내(유료)"
        },
        "hotel": "— (귀국일)",
        "flight": "7C1504 CTS 16:00 → ICN 19:10",
        "highlight": "에도시대 테마파크 · 하나투어 간식 쿠폰 · 도리무시 우동"
      },
      "geometry": {
        "type": "LineString",
        "coordinates": [
          [
            141.1485,
            42.4935
          ],
          [
            141.16067,
            42.46389
          ],
          [
            141.22,
            42.5
          ],
          [
            141.3,
            42.55
          ],
          [
            141.4,
            42.6
          ],
          [
            141.5,
            42.66
          ],
          [
            141.58,
            42.71
          ],
          [
            141.65,
            42.745
          ],
          [
            141.6925,
            42.77528
          ]
        ]
      }
    },
    {
      "type": "Feature",
      "properties": {
        "tour_id": "hokkaido-day4",
        "kind": "stop",
        "order": 1,
        "name": "노보리베츠 세키스이테이(石水亭)",
        "detail": "登別 石水亭 · 3일차 숙소에서 출발",
        "color": "#9333ea",
        "day_label": "4일",
        "time": "출발",
        "note": "호텔 조식(뷔페) 후 다테 지다이무라로 이동"
      },
      "geometry": {
        "type": "Point",
        "coordinates": [
          141.1485,
          42.4935
        ]
      }
    },
    {
      "type": "Feature",
      "properties": {
        "tour_id": "hokkaido-day4",
        "kind": "stop",
        "order": 2,
        "name": "노보리베츠 다테 지다이무라(登別伊達時代村)",
        "detail": "에도시대 테마파크",
        "color": "#9333ea",
        "day_label": "4일",
        "time": "오전",
        "note": "닌자쇼·오이란쇼. 특전 간식 쿠폰. 중식: 도리무시 우동"
      },
      "geometry": {
        "type": "Point",
        "coordinates": [
          141.16067,
          42.46389
        ]
      }
    },
    {
      "type": "Feature",
      "properties": {
        "tour_id": "hokkaido-day4",
        "kind": "stop",
        "order": 3,
        "name": "신치토세공항(新千歳空港)",
        "detail": "CTS · 16:00 출발 · 7C1504",
        "color": "#9333ea",
        "day_label": "4일",
        "time": "16:00",
        "note": "약 1시간 이동 후 출국. 인천 19:10 도착"
      },
      "geometry": {
        "type": "Point",
        "coordinates": [
          141.6925,
          42.77528
        ]
      }
    }
  ]
}
